{
    "links": {
        "self": "http://www.neowsapp.com/rest/v1/neo/3266032?api_key=iIulBulltgU6a56xZRHN4H3l9WmuAYTsLGpBGhQ2"
    },
    "id": "3266032",
    "neo_reference_id": "3266032",
    "name": "(2005 BL1)",
    "designation": "2005 BL1",
    "nasa_jpl_url": "http://ssd.jpl.nasa.gov/sbdb.cgi?sstr=3266032",
    "absolute_magnitude_h": 24.561,
    "estimated_diameter": {
        "kilometers": {
            "estimated_diameter_min": 0.0325353121,
            "estimated_diameter_max": 0.0727511694
        },
        "meters": {
            "estimated_diameter_min": 32.535312061,
            "estimated_diameter_max": 72.7511694377
        },
        "miles": {
            "estimated_diameter_min": 0.0202164994,
            "estimated_diameter_max": 0.0452054669
        },
        "feet": {
            "estimated_diameter_min": 106.7431532224,
            "estimated_diameter_max": 238.6849467379
        }
    },
    "is_potentially_hazardous_asteroid": false,
    "close_approach_data": [
        {
            "close_approach_date": "2005-01-18",
            "close_approach_date_full": "2005-Jan-18 15:30",
            "epoch_date_close_approach": 1106062200000,
            "relative_velocity": {
                "kilometers_per_second": "12.6117411755",
                "kilometers_per_hour": "45402.2682318904",
                "miles_per_hour": "28211.2038355321"
            },
            "miss_distance": {
                "astronomical": "0.0534395379",
                "lunar": "20.7879802431",
                "kilometers": "7994441.043624273",
                "miles": "4967515.3177620474"
            },
            "orbiting_body": "Earth"
        }
    ],
    "orbital_data": {
        "orbit_id": "7",
        "orbit_determination_date": "2017-04-06 09:11:34",
        "first_observation_date": "2005-01-16",
        "last_observation_date": "2005-01-17",
        "data_arc_in_days": 1,
        "observations_used": 19,
        "orbit_uncertainty": "9",
        "minimum_orbit_intersection": ".0527172",
        "jupiter_tisserand_invariant": "4.398",
        "epoch_osculation": "2453387.5",
        "eccentricity": ".3180922651500869",
        "semi_major_axis": "1.508483924462714",
        "inclination": "21.67950216003441",
        "ascending_node_longitude": "297.7270340624953",
        "orbital_period": "676.7206925754256",
        "perihelion_distance": "1.028646855987877",
        "perihelion_argument": "195.1944667461742",
        "aphelion_distance": "1.988320992937551",
        "perihelion_time": "2453401.881615074285",
        "mean_anomaly": "352.3493082396538",
        "mean_motion": ".5319772307093673",
        "equinox": "J2000",
        "orbit_class": {
            "orbit_class_type": "AMO",
            "orbit_class_description": "Near-Earth asteroid orbits similar to that of 1221 Amor",
            "orbit_class_range": "1.017 AU < q (perihelion) < 1.3 AU"
        }
    },
    "is_sentry_object": false
}